[{"OBJECT_NAME":"STARLINK-35174","OBJECT_ID":"2025-207Z","EPOCH":"2026-03-09T17:24:39.222144","MEAN_MOTION":15.05689223,"ECCENTRICITY":7.935e-5,"INCLINATION":97.6027,"RA_OF_ASC_NODE":138.6483,"ARG_OF_PERICENTER":94.3438,"MEAN_ANOMALY":265.7879,"EPHEMERIS_TYPE":0,"CLASSIFICATION_TYPE":"U","NORAD_CAT_ID":65615,"ELEMENT_SET_NO":999,"REV_AT_EPOCH":2826,"BSTAR":0.00078086842,"MEAN_MOTION_DOT":0.00011236,"MEAN_MOTION_DDOT":0},{"OBJECT_NAME":"COSMOS 397 DEB","OBJECT_ID":"1971-015H","EPOCH":"2026-03-09T16:21:55.236384","MEAN_MOTION":13.85623668,"ECCENTRICITY":0.05722013,"INCLINATION":65.5786,"RA_OF_ASC_NODE":215.8732,"ARG_OF_PERICENTER":304.1204,"MEAN_ANOMALY":50.6825,"EPHEMERIS_TYPE":0,"CLASSIFICATION_TYPE":"U","NORAD_CAT_ID":5014,"ELEMENT_SET_NO":999,"REV_AT_EPOCH":66272,"BSTAR":0.00081446929,"MEAN_MOTION_DOT":3.353e-5,"MEAN_MOTION_DDOT":0}]
